#dP2021  8  5  0  0  0.00000000      97 __u+U IGS14 FIT  IAC
## 2169 345600.00000000   900.00000000 59431 0.0000000000000
+  121   C01C02C03C04C05C07C08C09C10C11C12C13C14C16C19C20C21
+        C22C23C24C25C26C27C28C29C30C32C33C34C35C36C37C38C40
+        C41C42C43C44C45C46C60E01E02E03E04E05E07E08E09E11E12
+        E13E14E15E18E19E21E24E25E26E27E30E31E33E36G01G02G03
+        G04G05G06G07G08G09G10G12G13G14G15G16G17G18G19G20G21
+        G22G23G24G25G26G27G28G29G30G31G32J01J02J03J07R01R02
+        R03R04R05R07R08R09R11R12R13R14R15R16R17R18R19R20R21
+        R22R24  0  0  0  0  0  0  0  0  0  0  0  0  0  0  0
++        12 12 12 12 12  9  9  8  8  8  8  8 11  8  6  7  6
++         6  7  7  7  7  7  6  7  7  7  6  7  7  7  7  7  7
++         7  7  7  7  7  7 12  4  4  4  4  4  4  4  5  4  4
++         4  5  4  5  4  4  4  4  4  4  4  4  4  5  3  4  3
++         3  4  3  3  3  3  3  3  4  3  4  4  3  3  3  4  3
++         3  3  3  3  3  3  4  3  3  3  3  8  8  7 13  7  5
++         5  5  5  6  6  5  7  5  7  6  6  6  5  5  7  7  5
++         7  6  0  0  0  0  0  0  0  0  0  0  0  0  0  0  0
%c M  cc GPS ccc cccc cccc cccc cccc ccccc ccccc ccccc ccccc
%c cc cc ccc ccc cccc cccc cccc cccc ccccc ccccc ccccc ccccc
%f  1.2500000  1.025000000  0.00000000000  0.000000000000000
%f  0.0000000  0.000000000  0.00000000000  0.000000000000000
%i    0    0    0    0      0      0      0      0         0
%i    0    0    0    0      0      0      0      0         0
/* INFORMATION & ANALYSIS CENTER (IAC)            FINAL DATA
/* S/V CLOCKS ARE ALIGNED TO GNSS TIME                      
/* G:C1WC2W R:C1PC2P E:C1XC5X C:C2IC6I J:C1CC2S             
/* PCV:IGS14_2163 OL/AL:FES2004  NONE     YN ORB:CoN CLK:CoN
*  2021 08 05 23 30  0.00000000
PC01 -34285.271908  24550.440603    189.453703   -202.783169
PC02   4352.413746  41888.091153   -722.225906    447.258889
PC03 -14716.722329  39481.744770   -249.663176   -380.906597
PC04 -39608.968046  14423.586706    556.540596   -297.259615
PC05  21858.023075  36015.238625  -1104.298406    -14.337837
PC07 -21199.255794  26311.276664  25174.869829     42.293299
PC08 -17231.634479  38398.481658   4927.097910   -915.849839
PC09   6816.013663  35451.031946 -21116.568654     -4.764179
PC10  -7299.306231  27785.559996  30978.480293    -11.406393
PC11  10305.186453  24842.715804   7592.017678    500.057045
PC12  -4353.198498  18100.116738  20826.921075    790.322499
PC13  -8037.717506  40566.990320  -8818.431847    363.097538
PC14   5943.613734  15228.925044 -22602.799982    744.210323
PC16  -3278.361584  29344.418212 -29895.038946   -876.772742
PC19 -16432.793781 -11877.002257  19186.496480    936.078456
PC20   3511.529396 -15961.113849  22635.298349   -826.398395
PC21 -22425.797919  10659.757961 -12697.325422   -938.903424
PC22 -27520.348094   -797.167044   4448.870016   -949.612739
PC23  17628.165996   -843.121270  21631.093177   -963.302277
PC24  -7565.351637  26118.526457   6321.041990   -964.161141
PC25   8130.925167  17312.109042  20326.137018   -874.766558
PC26 -16820.520581  19951.342420  -9936.116734    868.518612
PC27  12035.148495 -10475.294189 -22916.971462    576.183078
PC28  20129.074530   8594.699763 -17318.730992    -41.982232
PC29 -17214.589952 -21906.092765   1554.366613    429.383680
PC30  -3448.791749 -22996.446384 -15447.938314    476.486488
PC32  22387.325798 -10835.092864  12681.145491   -928.745751
PC33  16466.384729  11824.203772 -19184.670362   -952.522916
PC34   4054.198934  23273.498869  14828.474154   -611.638252
PC35 -20524.312830  -8257.010857  17016.913639   -153.258799
PC36  -7428.808565 -17799.258373 -20135.908952   -740.040497
PC37  17566.421508 -18817.985339  10779.261863   -861.912881
PC38 -15686.148185  39120.989537   2847.619950    166.614492
PC40 -13750.060650  22639.530656  32800.814922    187.517978
PC41  27483.398239    894.405865  -4709.222666   -968.371605
PC42  -4393.056528  15972.061086 -22415.001240   -928.519704
PC43  16853.091537  22207.220863  -1036.392478   -854.569210
PC44 -11935.567359  10724.342507  22818.160399    326.281042
PC45 -17567.748827   1126.155254 -21643.927051    512.857659
PC46   6745.489109 -26039.290476  -7354.935175    145.541709
PC60   7337.019547  41505.198735   1296.105310     -0.837226
PE01  24339.760860  -4373.886099  16276.091126  -1165.492475
PE02 -24388.418578   4510.005612 -16158.233461    237.919963
PE03 -27882.252851  -5701.596566  -8108.696033   -460.542565
PE04  17976.077235  -9008.571017  21731.205981   -828.801351
PE05 -21580.233869 -17317.670465  10511.183248   -259.517410
PE07   2798.068662  18700.911918 -22769.816406   -570.313006
PE08 -17559.149877   9219.358474 -21966.752939   5958.768520
PE09  -3106.270610 -18598.672769  22817.113808   5575.944848
PE11   -612.590537 -29225.389692  -4702.537487   5618.872048
PE12  11487.053676 -17620.478420 -20838.237897   5074.882712
PE13    436.042083  29148.080061   5135.512981    419.924275
PE14  11557.217329 -16751.109365 -24664.577616  -1525.431567
PE15 -11352.088947  17662.943931  20863.759320    799.551306
PE18   1107.924757  18231.290345  16660.654131  -1672.661893
PE19  28012.509417   7455.331156   6001.938706    344.987155
PE21  12112.190580  11548.589893  24420.979989   -680.337655
PE24   8614.136855 -21707.072019 -18182.515062  -1047.118598
PE25 -11908.425698 -11706.373213 -24428.109443   -542.310518
PE26  12329.495063  22829.887638 -14258.140538   1495.213652
PE27  -7637.971516  21553.244781  18806.952011    -91.547269
PE30 -23334.496322  18184.314930   1114.203862   2725.404082
PE31  22763.287243 -18800.232566  -2152.187876   -484.072590
PE33  16425.378214   4193.868871 -24266.813525   -466.667892
PE36 -11927.704602 -23451.045072  13560.548344   -244.398443
PG01 -13125.850580  13426.456893  18369.761821    606.313271
PG02  13395.807824  11852.955695 -18961.861038   -624.454174
PG03 -23608.886531  12031.217083   -193.567698   -244.117864
PG04 -16540.238968   5489.307217 -20054.874267   -203.550640
PG05  23878.867447  -4153.388709 -11217.267362    -50.194683
PG06   7066.706270  22229.944040 -12587.888709     51.269746
PG07  -6480.662160  24446.835173  -6859.256039    218.749719
PG08 -22831.112140  -3468.590285  13376.940990    -31.516301
PG09  -5624.456328  14540.863623 -21564.772130   -357.957151
PG10   -476.905421 -16051.826301  21221.778897   -176.627224
PG12  24341.619206 -10442.146579   -393.667642    -78.809041
PG13  22328.211310  12064.931886   7943.460908    167.407429
PG14    257.450828  16176.154719  21052.080800     30.434459
PG15  23173.255320    790.478118  12880.896523   -130.429741
PG16 -21721.460164  -2826.086307 -15584.694638   -368.949839
PG17   7745.540828  19601.761260  16587.434176    484.939485
PG18   5351.466091 -25512.480489  -4869.611883    335.331022
PG19  15478.147250  19889.561501   8338.937113     35.827974
PG20  17460.242358   4980.916886 -19329.593063    519.807083
PG21 -15293.764235   4639.955526  21849.672809    135.565523
PG22 -23888.773817   8408.884654   7833.015832   -545.470635
PG23  11607.432957 -18274.710983  15320.839943     74.721278
PG24  14682.005093  -8612.673373  20043.318074    199.345778
PG25  17847.421994 -16890.817164  -9988.046559    186.163409
PG26 -13017.334261 -10154.903472 -20907.698251    119.240844
PG27 -23508.439979 -12019.374699   4164.506721   -173.962377
PG28   6330.975809  13860.384740  22299.238865    525.070754
PG29   8243.974155 -12234.776616 -22131.647614   -391.684122
PG30   1471.058989  25959.646347   4825.574704   -459.008473
PG31  -8382.258326 -20635.520519 -14194.960875   -132.672311
PG32 -11778.122180 -19384.353004  14075.522994      9.702768
PJ01 -31020.191979  15782.814451 -19146.287962   -432.470229
PJ02 -29644.888673  29973.256551   4563.033398     -1.318289
PJ03 -24945.670321  24018.981749  29146.552264     -0.582009
PJ07 -25399.481905  33659.577574    -29.685438      0.026137
PR01  19612.478139   8383.494489 -14002.350472     83.400066
PR02  24738.625087   -163.296428   6129.473768    488.669223
PR03  13723.296169  -8087.254598  19946.762117     40.772018
PR04  -4792.017097 -11099.702545  22487.697315     98.955313
PR05 -20684.476241  -8163.666451  12526.897547     76.639578
PR07 -13207.686950   8238.643919 -20185.705462    -41.759200
PR08   4859.593869  11176.962742 -22351.143516    -60.226592
PR09 -16826.809394   9942.987626 -16325.144971      6.604168
PR11  -4794.164742  19652.636987  15543.711533     45.825098
PR12   8663.628138   6788.619687  23043.678456    251.270120
PR13  16537.688566  -9423.683040  16975.693344    -58.733669
PR14  14957.583440 -20674.633282    281.220328     67.310556
PR15   4611.872142 -19394.268842 -15891.438573    102.259363
PR16  -9770.749299  -5494.513111 -22930.471477    -19.077668
PR17   3779.388594 -14584.427432 -20567.487032    447.309586
PR18  -6385.172351 -23465.255475  -7766.529878     85.928255
PR19 -12355.570763 -20704.702817   8303.511842   -154.312886
PR20 -12114.377584  -3784.932928  22133.679381    -53.664341
PR21  -2968.550912  15637.888556  19937.821674   -229.331242
PR22   6786.130358  23579.688978   6786.588140   -126.378060
PR24  12381.493480   2642.016975 -22137.972272     53.358533
EOF
